QPS-SAR-14 (YACHIHOKO-I)
1 66316U 25252A   25338.66657361  .00013169  00000+0  11222-2 0  9998
2 66316  42.0036 119.6506 0006845  95.5659 264.5947 14.97574412  4329
ELECTRON R/B            
1 66317U 25252B   25338.67326780  .04861387  83152-5  15417-2 0  9990
2 66317  41.9852  99.2617 0062086  80.1195 280.6676 16.20073041  4557
STARLINK-35442          
1 66319U 25253A   25338.46681282  .00089450  00000+0  21250-2 0  9997
2 66319  43.0027  33.5509 0001636 271.7121  88.3548 15.40680264  5642
STARLINK-34616          
1 66320U 25253B   25338.75002315 -.02043192  00000+0 -49091-1 0  9994
2 66320  43.0006  31.5087 0001165 271.3128  31.0064 15.44091342  5847
STARLINK-34615          
1 66321U 25253C   25338.75002315 -.00132002  00000+0 -22769-2 0  9996
2 66321  43.0003  30.6633 0001665 280.7282   6.7619 15.50645357  5698
STARLINK-35292          
1 66322U 25253D   25338.58334491 -.00151343  00000+0 -36875-2 0  9993
2 66322  43.0007  32.7895 0001641 269.5668  55.0705 15.40702534  5618
STARLINK-35309          
1 66323U 25253E   25338.49692469  .00182433  00000+0  30261-2 0  9991
2 66323  43.0008  32.9093 0003796 268.5168  91.5257 15.50737349  5653
STARLINK-35506          
1 66324U 25253F   25337.53208834  .00026255  00000+0  45167-3 0  9996
2 66324  43.0006  38.5692 0000870 276.2742  83.8019 15.50590090  5507
STARLINK-35504          
1 66325U 25253G   25338.75002315 -.00097532  00000+0 -23550-2 0  9997
2 66325  43.0005  31.6162 0000999 265.7105 351.4810 15.40732360  5646
STARLINK-35479          
1 66326U 25253H   25338.62543997  .00094247  00000+0  15910-2 0  9999
2 66326  43.0005  32.1514 0001415 287.7439  72.3267 15.50615042  5678
STARLINK-35507          
1 66327U 25253J   25338.66668980  .00044208  00000+0  75641-3 0  9994
2 66327  43.0007  31.9419 0001637 282.8728 296.3455 15.50531081  5728
